TRANSIT 16 [?]          
1 02807U 67048A   17286.63074824  .00000058  00000-0  74968-4 0  9991
2 02807  89.6189 100.2173 0022330  95.6562 345.0843 13.50162023480403
TRANSIT 17 [?]          
1 02965U 67092A   17286.47100819  .00000068  00000-0  85579-4 0  9992
2 02965  89.2484 250.6479 0045637 251.3037 227.3812 13.52882656467691
TRANSIT 18 [?]          
1 03133U 68012A   17286.59528706  .00000086  00000-0  11523-3 0  9992
2 03133  89.9590 274.7368 0076241 165.0607 332.2185 13.50994207166551
NNSS 19 [?]             
1 04507U 70067A   17286.54494856  .00000052  00000-0  63201-4 0  9998
2 04507  89.8358 260.7761 0170150 288.2842  69.9861 13.50662569319607
NNSS O-20 [?]           
1 06909U 73081A   17286.61002417  .00000089  00000-0  81746-4 0  9995
2 06909  89.8214 310.4601 0157579  11.6954 348.7800 13.70456691395103
TRANSAT [?]             
1 10457U 77106A   17286.58413303  .00000039  00000-0  45528-4 0  9999
2 10457  89.7635 169.2080 0026108 146.5116 277.5871 13.48576274965480
NOVA I [?]              
1 12458U 81044A   17286.60436809  .00000059  00000-0  11813-3 0  9998
2 12458  89.9468 120.9318 0015746  50.5895  12.2140 13.22971455757520
NOVA 3 [?]              
1 15362U 84110A   17286.48707916  .00000057  00000-0  11581-3 0  9998
2 15362  90.0503  55.3571 0030190 268.1415 143.5823 13.22739173592989
OSCAR 30 [?]            
1 15935U 85066A   17286.48122212  .00000069  00000-0  11087-3 0  9999
2 15935  90.1369  51.7886 0168326 214.8500 196.0811 13.35629341566408
OSCAR 24 [?]            
1 15936U 85066B   17286.46181896  .00000062  00000-0  98086-4 0  9999
2 15936  90.1258  45.4476 0168904 219.3024 191.7340 13.35506290568569
POLAR BEAR [?]          
1 17070U 86088A   17286.59472644  .00000050  00000-0  39639-4 0  9999
2 17070  89.5328 321.2746 0040802 109.3787   5.5323 13.74739561550022
OSCAR 27 [?]            
1 18361U 87080A   17286.61683656  .00000023  00000-0  23177-4 0  9996
2 18361  90.3307 339.4398 0106518 121.2247 239.9391 13.44441146474836
OSCAR 29 [?]            
1 18362U 87080B   17286.60420447  .00000015  00000-0  91184-5 0  9998
2 18362  90.3312 339.6675 0107847 137.8168 335.1558 13.44033324474484
OSCAR 23 [?]            
1 19070U 88033A   17286.55140560  .00000053  00000-0  91197-4 0  9998
2 19070  90.3606 277.6252 0190126 190.8885 284.1788 13.27415386426866
OSCAR 32 [?]            
1 19071U 88033B   17286.55039271 -.00000000  00000-0 -17688-4 0  9992
2 19071  90.3604 277.7002 0188450 180.1961 297.4886 13.27596905427081
NOVA 11 [?]             
1 19223U 88052A   17286.43412477  .00000048  00000-0  94728-4 0  9992
2 19223  89.9593  86.5518 0029252 313.7698  73.4628 13.22657918415220
OSCAR 25 [?]            
1 19419U 88074A   17286.39665528  .00000039  00000-0  50171-4 0  9999
2 19419  89.9914  18.7935 0098384 111.0111 296.0105 13.42174175426311
OSCAR 31 [?]            
1 19420U 88074B   17286.35233964  .00000028  00000-0  30045-4 0  9998
2 19420  89.9922  18.8187 0096550 105.4276 296.6885 13.42186765426414
